[{"OBJECT_NAME":"SAOCOM 1A","OBJECT_ID":"2018-076A","EPOCH":"2026-03-08T03:21:55.865952","MEAN_MOTION":14.82167481,"ECCENTRICITY":0.000128,"INCLINATION":97.8888,"RA_OF_ASC_NODE":255.3343,"ARG_OF_PERICENTER":85.418,"MEAN_ANOMALY":274.7179,"EPHEMERIS_TYPE":0,"CLASSIFICATION_TYPE":"U","NORAD_CAT_ID":43641,"ELEMENT_SET_NO":999,"REV_AT_EPOCH":40113,"BSTAR":9.7041e-5,"MEAN_MOTION_DOT":7.21e-6,"MEAN_MOTION_DDOT":0},{"OBJECT_NAME":"H-2A R/B","OBJECT_ID":"2018-084L","EPOCH":"2026-03-08T02:38:10.393728","MEAN_MOTION":15.41267342,"ECCENTRICITY":0.0025551,"INCLINATION":98.873,"RA_OF_ASC_NODE":284.16,"ARG_OF_PERICENTER":30.7005,"MEAN_ANOMALY":329.5725,"EPHEMERIS_TYPE":0,"CLASSIFICATION_TYPE":"U","NORAD_CAT_ID":43682,"ELEMENT_SET_NO":999,"REV_AT_EPOCH":40553,"BSTAR":0.00067661,"MEAN_MOTION_DOT":0.00028437,"MEAN_MOTION_DDOT":0},{"OBJECT_NAME":"SAOCOM 1B","OBJECT_ID":"2020-059A","EPOCH":"2026-03-06T22:57:01.124064","MEAN_MOTION":14.82173062,"ECCENTRICITY":0.00015046,"INCLINATION":97.8885,"RA_OF_ASC_NODE":253.2654,"ARG_OF_PERICENTER":81.2285,"MEAN_ANOMALY":278.9098,"EPHEMERIS_TYPE":0,"CLASSIFICATION_TYPE":"U","NORAD_CAT_ID":46265,"ELEMENT_SET_NO":999,"REV_AT_EPOCH":29834,"BSTAR":0.00017595012,"MEAN_MOTION_DOT":1.349e-5,"MEAN_MOTION_DDOT":0},{"OBJECT_NAME":"CSS (TIANHE)","OBJECT_ID":"2021-035A","EPOCH":"2026-03-08T01:14:30.124320","MEAN_MOTION":15.60561665,"ECCENTRICITY":0.0007,"INCLINATION":41.4663,"RA_OF_ASC_NODE":218.1268,"ARG_OF_PERICENTER":262.9146,"MEAN_ANOMALY":97.0897,"EPHEMERIS_TYPE":0,"CLASSIFICATION_TYPE":"U","NORAD_CAT_ID":48274,"ELEMENT_SET_NO":999,"REV_AT_EPOCH":27735,"BSTAR":0.00033952,"MEAN_MOTION_DOT":0.00028649,"MEAN_MOTION_DDOT":0},{"OBJECT_NAME":"COSMOS 2550","OBJECT_ID":"2021-056A","EPOCH":"2026-03-08T05:06:58.550688","MEAN_MOTION":15.33829454,"ECCENTRICITY":0.0008335,"INCLINATION":67.1451,"RA_OF_ASC_NODE":45.3978,"ARG_OF_PERICENTER":269.5649,"MEAN_ANOMALY":90.455,"EPHEMERIS_TYPE":0,"CLASSIFICATION_TYPE":"U","NORAD_CAT_ID":48865,"ELEMENT_SET_NO":999,"REV_AT_EPOCH":26323,"BSTAR":-2.8484e-8,"MEAN_MOTION_DOT":-1.93e-6,"MEAN_MOTION_DDOT":0},{"OBJECT_NAME":"CZ-2C R/B","OBJECT_ID":"2022-058K","EPOCH":"2026-03-08T02:20:56.384448","MEAN_MOTION":15.54100851,"ECCENTRICITY":0.0042177,"INCLINATION":50.1897,"RA_OF_ASC_NODE":326.4776,"ARG_OF_PERICENTER":194.0797,"MEAN_ANOMALY":165.9,"EPHEMERIS_TYPE":0,"CLASSIFICATION_TYPE":"U","NORAD_CAT_ID":52794,"ELEMENT_SET_NO":999,"REV_AT_EPOCH":20988,"BSTAR":0.00068669,"MEAN_MOTION_DOT":0.00047047,"MEAN_MOTION_DDOT":0},{"OBJECT_NAME":"CZ-2C R/B","OBJECT_ID":"2022-132E","EPOCH":"2026-03-07T13:51:42.693408","MEAN_MOTION":15.61630713,"ECCENTRICITY":0.0020767,"INCLINATION":97.2968,"RA_OF_ASC_NODE":69.8304,"ARG_OF_PERICENTER":98.3512,"MEAN_ANOMALY":262.0101,"EPHEMERIS_TYPE":0,"CLASSIFICATION_TYPE":"U","NORAD_CAT_ID":54039,"ELEMENT_SET_NO":999,"REV_AT_EPOCH":19004,"BSTAR":0.00056501,"MEAN_MOTION_DOT":0.00049183,"MEAN_MOTION_DDOT":0},{"OBJECT_NAME":"GSLV R/B","OBJECT_ID":"2022-138AN","EPOCH":"2026-03-07T18:46:04.887264","MEAN_MOTION":14.96759254,"ECCENTRICITY":0.00227971,"INCLINATION":87.3881,"RA_OF_ASC_NODE":167.0012,"ARG_OF_PERICENTER":153.2839,"MEAN_ANOMALY":206.9573,"EPHEMERIS_TYPE":0,"CLASSIFICATION_TYPE":"U","NORAD_CAT_ID":54149,"ELEMENT_SET_NO":999,"REV_AT_EPOCH":18364,"BSTAR":0.00037521862,"MEAN_MOTION_DOT":4.339e-5,"MEAN_MOTION_DDOT":0},{"OBJECT_NAME":"XRISM","OBJECT_ID":"2023-137A","EPOCH":"2026-03-08T01:20:14.157024","MEAN_MOTION":15.11480009,"ECCENTRICITY":0.0008044,"INCLINATION":31.0022,"RA_OF_ASC_NODE":294.2323,"ARG_OF_PERICENTER":21.4555,"MEAN_ANOMALY":338.642,"EPHEMERIS_TYPE":0,"CLASSIFICATION_TYPE":"U","NORAD_CAT_ID":57800,"ELEMENT_SET_NO":999,"REV_AT_EPOCH":13754,"BSTAR":0.00047956,"MEAN_MOTION_DOT":8.424e-5,"MEAN_MOTION_DDOT":0},{"OBJECT_NAME":"ACS3","OBJECT_ID":"2024-077B","EPOCH":"2026-03-08T01:23:20.698080","MEAN_MOTION":13.89511572,"ECCENTRICITY":0.0058619,"INCLINATION":97.2083,"RA_OF_ASC_NODE":8.5372,"ARG_OF_PERICENTER":80.9073,"MEAN_ANOMALY":279.8717,"EPHEMERIS_TYPE":0,"CLASSIFICATION_TYPE":"U","NORAD_CAT_ID":59588,"ELEMENT_SET_NO":999,"REV_AT_EPOCH":9397,"BSTAR":0.019614,"MEAN_MOTION_DOT":0.00024351,"MEAN_MOTION_DDOT":0},{"OBJECT_NAME":"SZ-21 MODULE","OBJECT_ID":"2025-246C","EPOCH":"2026-03-07T11:06:32.685984","MEAN_MOTION":15.68341086,"ECCENTRICITY":0.00014291,"INCLINATION":41.4737,"RA_OF_ASC_NODE":217.0662,"ARG_OF_PERICENTER":294.3949,"MEAN_ANOMALY":65.6744,"EPHEMERIS_TYPE":0,"CLASSIFICATION_TYPE":"U","NORAD_CAT_ID":66515,"ELEMENT_SET_NO":999,"REV_AT_EPOCH":1772,"BSTAR":0.00043322838,"MEAN_MOTION_DOT":0.00050102,"MEAN_MOTION_DDOT":0}]
